CCSDS_OMM_VERS = 2.0
CREATION_DATE  = 
ORIGINATOR     = 

OBJECT_NAME    = STARLINK-36228
OBJECT_ID      = 2025-298X
CENTER_NAME    = EARTH
REF_FRAME      = TEME
TIME_SYSTEM    = UTC
MEAN_ELEMENT_THEORY = SGP/SGP4

EPOCH          = 2026-01-04T14:00:01.999872
MEAN_MOTION    = 15.52538927
ECCENTRICITY   = .00033646
INCLINATION    = 69.9995
RA_OF_ASC_NODE = 185.6137
ARG_OF_PERICENTER = 265.2065
MEAN_ANOMALY   = 226.7154

EPHEMERIS_TYPE = 0
CLASSIFICATION_TYPE = U
NORAD_CAT_ID   = 67096
ELEMENT_SET_NO = 999
REV_AT_EPOCH   = 458
BSTAR          = -.60687752E-3
MEAN_MOTION_DOT = -.37355E-3
MEAN_MOTION_DDOT = 0

CCSDS_OMM_VERS = 2.0
CREATION_DATE  = 
ORIGINATOR     = 

OBJECT_NAME    = STARLINK-36222
OBJECT_ID      = 2025-298Y
CENTER_NAME    = EARTH
REF_FRAME      = TEME
TIME_SYSTEM    = UTC
MEAN_ELEMENT_THEORY = SGP/SGP4

EPOCH          = 2026-01-04T14:00:01.999872
MEAN_MOTION    = 15.52553396
ECCENTRICITY   = .00033044
INCLINATION    = 69.9993
RA_OF_ASC_NODE = 185.6108
ARG_OF_PERICENTER = 268.5146
MEAN_ANOMALY   = 225.3190

EPHEMERIS_TYPE = 0
CLASSIFICATION_TYPE = U
NORAD_CAT_ID   = 67097
ELEMENT_SET_NO = 999
REV_AT_EPOCH   = 458
BSTAR          = -.94167893E-3
MEAN_MOTION_DOT = -.57753E-3
MEAN_MOTION_DDOT = 0

CCSDS_OMM_VERS = 2.0
CREATION_DATE  = 
ORIGINATOR     = 

OBJECT_NAME    = STARLINK-36205
OBJECT_ID      = 2025-298Z
CENTER_NAME    = EARTH
REF_FRAME      = TEME
TIME_SYSTEM    = UTC
MEAN_ELEMENT_THEORY = SGP/SGP4

EPOCH          = 2026-01-04T14:00:01.999872
MEAN_MOTION    = 15.42708570
ECCENTRICITY   = .00029403
INCLINATION    = 69.9998
RA_OF_ASC_NODE = 185.6603
ARG_OF_PERICENTER = 273.2738
MEAN_ANOMALY   = 179.0121

EPHEMERIS_TYPE = 0
CLASSIFICATION_TYPE = U
NORAD_CAT_ID   = 67098
ELEMENT_SET_NO = 999
REV_AT_EPOCH   = 464
BSTAR          = .22026765E-3
MEAN_MOTION_DOT = .9508E-4
MEAN_MOTION_DDOT = 0

CCSDS_OMM_VERS = 2.0
CREATION_DATE  = 
ORIGINATOR     = 

OBJECT_NAME    = STARLINK-36193
OBJECT_ID      = 2025-298AA
CENTER_NAME    = EARTH
REF_FRAME      = TEME
TIME_SYSTEM    = UTC
MEAN_ELEMENT_THEORY = SGP/SGP4

EPOCH          = 2026-01-04T14:00:01.999872
MEAN_MOTION    = 15.42710078
ECCENTRICITY   = .00033298
INCLINATION    = 69.9998
RA_OF_ASC_NODE = 185.9155
ARG_OF_PERICENTER = 280.4935
MEAN_ANOMALY   = 307.7737

EPHEMERIS_TYPE = 0
CLASSIFICATION_TYPE = U
NORAD_CAT_ID   = 67099
ELEMENT_SET_NO = 999
REV_AT_EPOCH   = 458
BSTAR          = .34420814E-3
MEAN_MOTION_DOT = .14954E-3
MEAN_MOTION_DDOT = 0

CCSDS_OMM_VERS = 2.0
CREATION_DATE  = 
ORIGINATOR     = 

OBJECT_NAME    = STARLINK-36215
OBJECT_ID      = 2025-298AB
CENTER_NAME    = EARTH
REF_FRAME      = TEME
TIME_SYSTEM    = UTC
MEAN_ELEMENT_THEORY = SGP/SGP4

EPOCH          = 2026-01-04T14:00:01.999872
MEAN_MOTION    = 15.52547535
ECCENTRICITY   = .00034829
INCLINATION    = 69.9995
RA_OF_ASC_NODE = 185.6014
ARG_OF_PERICENTER = 265.8422
MEAN_ANOMALY   = 235.6550

EPHEMERIS_TYPE = 0
CLASSIFICATION_TYPE = U
NORAD_CAT_ID   = 67100
ELEMENT_SET_NO = 999
REV_AT_EPOCH   = 464
BSTAR          = -.77089314E-3
MEAN_MOTION_DOT = -.47362E-3
MEAN_MOTION_DDOT = 0

CCSDS_OMM_VERS = 2.0
CREATION_DATE  = 
ORIGINATOR     = 

OBJECT_NAME    = STARLINK-36200
OBJECT_ID      = 2025-298AC
CENTER_NAME    = EARTH
REF_FRAME      = TEME
TIME_SYSTEM    = UTC
MEAN_ELEMENT_THEORY = SGP/SGP4

EPOCH          = 2026-01-04T14:00:01.999872
MEAN_MOTION    = 15.52971089
ECCENTRICITY   = .00031243
INCLINATION    = 69.9999
RA_OF_ASC_NODE = 185.6085
ARG_OF_PERICENTER = 270.7756
MEAN_ANOMALY   = 226.8127

EPHEMERIS_TYPE = 0
CLASSIFICATION_TYPE = U
NORAD_CAT_ID   = 67101
ELEMENT_SET_NO = 999
REV_AT_EPOCH   = 464
BSTAR          = -.26580639E-1
MEAN_MOTION_DOT = -.1482925E-1
MEAN_MOTION_DDOT = 0

CCSDS_OMM_VERS = 2.0
CREATION_DATE  = 
ORIGINATOR     = 

OBJECT_NAME    = STARLINK-36255
OBJECT_ID      = 2025-299A
CENTER_NAME    = EARTH
REF_FRAME      = TEME
TIME_SYSTEM    = UTC
MEAN_ELEMENT_THEORY = SGP/SGP4

EPOCH          = 2026-01-04T14:00:01.999872
MEAN_MOTION    = 15.43086485
ECCENTRICITY   = .00011395
INCLINATION    = 42.9994
RA_OF_ASC_NODE = 178.4257
ARG_OF_PERICENTER = 284.2903
MEAN_ANOMALY   = 184.5762

EPHEMERIS_TYPE = 0
CLASSIFICATION_TYPE = U
NORAD_CAT_ID   = 67102
ELEMENT_SET_NO = 999
REV_AT_EPOCH   = 448
BSTAR          = -.57799314E-1
MEAN_MOTION_DOT = -.2332909E-1
MEAN_MOTION_DDOT = 0

CCSDS_OMM_VERS = 2.0
CREATION_DATE  = 
ORIGINATOR     = 

OBJECT_NAME    = STARLINK-36256
OBJECT_ID      = 2025-299B
CENTER_NAME    = EARTH
REF_FRAME      = TEME
TIME_SYSTEM    = UTC
MEAN_ELEMENT_THEORY = SGP/SGP4

EPOCH          = 2026-01-04T14:00:01.999872
MEAN_MOTION    = 15.45827373
ECCENTRICITY   = .00016032
INCLINATION    = 42.9996
RA_OF_ASC_NODE = 178.3862
ARG_OF_PERICENTER = 277.1812
MEAN_ANOMALY   = 208.0911

EPHEMERIS_TYPE = 0
CLASSIFICATION_TYPE = U
NORAD_CAT_ID   = 67103
ELEMENT_SET_NO = 999
REV_AT_EPOCH   = 448
BSTAR          = -.46819603E-1
MEAN_MOTION_DOT = -.2066371E-1
MEAN_MOTION_DDOT = 0

CCSDS_OMM_VERS = 2.0
CREATION_DATE  = 
ORIGINATOR     = 

OBJECT_NAME    = STARLINK-36258
OBJECT_ID      = 2025-299C
CENTER_NAME    = EARTH
REF_FRAME      = TEME
TIME_SYSTEM    = UTC
MEAN_ELEMENT_THEORY = SGP/SGP4

EPOCH          = 2026-01-04T14:00:01.999872
MEAN_MOTION    = 15.50597010
ECCENTRICITY   = .00019987
INCLINATION    = 42.9992
RA_OF_ASC_NODE = 178.3583
ARG_OF_PERICENTER = 264.4709
MEAN_ANOMALY   = 231.7618

EPHEMERIS_TYPE = 0
CLASSIFICATION_TYPE = U
NORAD_CAT_ID   = 67104
ELEMENT_SET_NO = 999
REV_AT_EPOCH   = 448
BSTAR          = -.10269877E-2
MEAN_MOTION_DOT = -.60171E-3
MEAN_MOTION_DDOT = 0

CCSDS_OMM_VERS = 2.0
CREATION_DATE  = 
ORIGINATOR     = 

OBJECT_NAME    = STARLINK-36261
OBJECT_ID      = 2025-299D
CENTER_NAME    = EARTH
REF_FRAME      = TEME
TIME_SYSTEM    = UTC
MEAN_ELEMENT_THEORY = SGP/SGP4

EPOCH          = 2026-01-04T14:00:01.999872
MEAN_MOTION    = 15.43639141
ECCENTRICITY   = .00018448
INCLINATION    = 42.9995
RA_OF_ASC_NODE = 178.4016
ARG_OF_PERICENTER = 269.0638
MEAN_ANOMALY   = 210.5210

EPHEMERIS_TYPE = 0
CLASSIFICATION_TYPE = U
NORAD_CAT_ID   = 67105
ELEMENT_SET_NO = 999
REV_AT_EPOCH   = 448
BSTAR          = -.4070025E-1
MEAN_MOTION_DOT = -.1675576E-1
MEAN_MOTION_DDOT = 0

CCSDS_OMM_VERS = 2.0
CREATION_DATE  = 
ORIGINATOR     = 

OBJECT_NAME    = STARLINK-36259
OBJECT_ID      = 2025-299E
CENTER_NAME    = EARTH
REF_FRAME      = TEME
TIME_SYSTEM    = UTC
MEAN_ELEMENT_THEORY = SGP/SGP4

EPOCH          = 2026-01-04T14:00:01.999872
MEAN_MOTION    = 15.50592843
ECCENTRICITY   = .00014669
INCLINATION    = 42.9991
RA_OF_ASC_NODE = 178.3452
ARG_OF_PERICENTER = 267.3027
MEAN_ANOMALY   = 234.6803

EPHEMERIS_TYPE = 0
CLASSIFICATION_TYPE = U
NORAD_CAT_ID   = 67106
ELEMENT_SET_NO = 999
REV_AT_EPOCH   = 448
BSTAR          = -.85709436E-3
MEAN_MOTION_DOT = -.50326E-3
MEAN_MOTION_DDOT = 0

CCSDS_OMM_VERS = 2.0
CREATION_DATE  = 
ORIGINATOR     = 

OBJECT_NAME    = STARLINK-36196
OBJECT_ID      = 2025-299F
CENTER_NAME    = EARTH
REF_FRAME      = TEME
TIME_SYSTEM    = UTC
MEAN_ELEMENT_THEORY = SGP/SGP4

EPOCH          = 2026-01-04T14:00:01.999872
MEAN_MOTION    = 15.50592060
ECCENTRICITY   = .00018963
INCLINATION    = 42.9992
RA_OF_ASC_NODE = 178.3491
ARG_OF_PERICENTER = 269.0336
MEAN_ANOMALY   = 231.0322

EPHEMERIS_TYPE = 0
CLASSIFICATION_TYPE = U
NORAD_CAT_ID   = 67107
ELEMENT_SET_NO = 999
REV_AT_EPOCH   = 448
BSTAR          = -.86244725E-3
MEAN_MOTION_DOT = -.50637E-3
MEAN_MOTION_DDOT = 0

