STARLINK-36228          
1 67096U 25298X   26004.58335648 -.00037355  00000+0 -60688-3 0  9993
2 67096  69.9995 185.6137 0003364 265.2065 226.7154 15.52538927  4581
STARLINK-36222          
1 67097U 25298Y   26004.58335648 -.00057753  00000+0 -94168-3 0  9998
2 67097  69.9993 185.6108 0003304 268.5146 225.3190 15.52553396  4580
STARLINK-36205          
1 67098U 25298Z   26004.58335648  .00009508  00000+0  22027-3 0  9997
2 67098  69.9998 185.6603 0002940 273.2738 179.0121 15.42708570  4642
STARLINK-36193          
1 67099U 25298AA  26004.58335648  .00014954  00000+0  34421-3 0  9990
2 67099  69.9998 185.9155 0003329 280.4935 307.7737 15.42710078  4581
STARLINK-36215          
1 67100U 25298AB  26004.58335648 -.00047362  00000+0 -77089-3 0  9991
2 67100  69.9995 185.6014 0003482 265.8422 235.6550 15.52547535  4646
STARLINK-36200          
1 67101U 25298AC  26004.58335648 -.01482925  00000+0 -26581-1 0  9990
2 67101  69.9999 185.6085 0003124 270.7756 226.8127 15.52971089  4644
STARLINK-36255          
1 67102U 25299A   26004.58335648 -.02332909  00000+0 -57799-1 0  9994
2 67102  42.9994 178.4257 0001139 284.2903 184.5762 15.43086485  4484
STARLINK-36256          
1 67103U 25299B   26004.58335648 -.02066371  00000+0 -46820-1 0  9995
2 67103  42.9996 178.3862 0001603 277.1812 208.0911 15.45827373  4483
STARLINK-36258          
1 67104U 25299C   26004.58335648 -.00060171  00000+0 -10270-2 0  9997
2 67104  42.9992 178.3583 0001998 264.4709 231.7618 15.50597010  4486
STARLINK-36261          
1 67105U 25299D   26004.58335648 -.01675576  00000+0 -40700-1 0  9990
2 67105  42.9995 178.4016 0001844 269.0638 210.5210 15.43639141  4481
STARLINK-36259          
1 67106U 25299E   26004.58335648 -.00050326  00000+0 -85709-3 0  9990
2 67106  42.9991 178.3452 0001466 267.3027 234.6803 15.50592843  4484
STARLINK-36196          
1 67107U 25299F   26004.58335648 -.00050637  00000+0 -86245-3 0  9992
2 67107  42.9992 178.3491 0001896 269.0336 231.0322 15.50592060  4486
